{"fetched_at":"2026-07-19T17:31:49.420Z","source":"https://celestrak.org/NORAD/elements/gp.php?NAME=PLEIADES&FORMAT=JSON","constellation":"pleiades-neo","records":[{"OBJECT_NAME":"PLEIADES NEO 3","OBJECT_ID":"2021-034A","EPOCH":"2026-07-19T06:19:29.818848","CLASSIFICATION_TYPE":"U","MEAN_MOTION":14.81672075,"ECCENTRICITY":0.00013819,"INCLINATION":97.8937,"RA_OF_ASC_NODE":274.569,"ARG_OF_PERICENTER":96.5549,"MEAN_ANOMALY":263.5821,"EPHEMERIS_TYPE":0,"NORAD_CAT_ID":48268,"ELEMENT_SET_NO":999,"REV_AT_EPOCH":28240,"BSTAR":0.000024860284,"MEAN_MOTION_DOT":0.00000144,"MEAN_MOTION_DDOT":0},{"OBJECT_NAME":"PLEIADES NEO 4","OBJECT_ID":"2021-073E","EPOCH":"2026-07-18T11:41:08.462400","CLASSIFICATION_TYPE":"U","MEAN_MOTION":14.81674771,"ECCENTRICITY":0.00013179,"INCLINATION":97.8937,"RA_OF_ASC_NODE":273.7994,"ARG_OF_PERICENTER":95.2302,"MEAN_ANOMALY":264.9061,"EPHEMERIS_TYPE":0,"NORAD_CAT_ID":49070,"ELEMENT_SET_NO":999,"REV_AT_EPOCH":26600,"BSTAR":0.000053928827,"MEAN_MOTION_DOT":0.00000372,"MEAN_MOTION_DDOT":0}]}
