PLEIADES NEO 3          
1 48268U 21034A   26200.26353957  .00000144  00000+0  24860-4 0  9990
2 48268  97.8937 274.5690 0001381  96.5549 263.5821 14.81672075282401
PLEIADES NEO 4          
1 49070U 21073E   26199.48690350  .00000372  00000+0  53929-4 0  9998
2 49070  97.8937 273.7994 0001317  95.2302 264.9061 14.81674771266007
